NORAD_CAT_ID,OBJECT_NAME,OBJECT_TYPE,EPOCH,MEAN_MOTION,ECCENTRICITY,INCLINATION,RA_OF_ASC_NODE,ARG_OF_PERICENTER,MEAN_ANOMALY,BSTAR,MEAN_MOTION_DOT,MEAN_MOTION_DDOT,TLE_LINE0,TLE_LINE1,TLE_LINE2,SEMIMAJOR_AXIS,PERIOD,APOGEE,PERIGEE,DECAYED
51738.0,STARLINK-3515,PAYLOAD,2022-05-05 22:00:00,15.26787429,0.0001989,53.2162,141.6783,31.4042,156.3464,-0.02333,-0.00582902,0.0,0 STARLINK-3515,1 51738U 22016AA  22125.91667824 -.00582902  00000-0 -23330-1 0  9990,2 51738  53.2162 141.6783 0001989  31.4042 156.3464 15.26787429 12740,6863.56,94.316,486.791,484.06,0.0
51738.0,STARLINK-3515,PAYLOAD,2022-05-06 08:00:01,15.26248608,0.0001595999999999,53.2171,139.7553,49.1427,269.6712,-0.029637,-0.00725567,0.0,0 STARLINK-3515,1 51738U 22016AA  22126.33334491 -.00725567  00000-0 -29637-1 0  9990,2 51738  53.2171 139.7553 0001596  49.1427 269.6712 15.26248608 12802,6865.176,94.349,488.136,485.945,0.0
51738.0,STARLINK-3515,PAYLOAD,2022-05-06 14:00:01,15.25866823,0.0001635,53.2171,138.6013,48.8113,204.212,-0.030054,-0.00727192,0.0,0 STARLINK-3515,1 51738U 22016AA  22126.58334491 -.00727192  00000-0 -30054-1 0  9998,2 51738  53.2171 138.6013 0001635  48.8113 204.2120 15.25866823 12849,6866.321,94.373,489.3080000000001,487.06300000000016,0.0
51738.0,STARLINK-3515,PAYLOAD,2022-05-06 22:00:00,15.25353728,0.0001613,53.2173,137.063,45.8325,238.9352,-0.030294,-0.00722067,0.0,0 STARLINK-3515,1 51738U 22016AA  22126.91667824 -.00722067  00000-0 -30294-1 0  9996,2 51738  53.2173 137.0630 0001613  45.8325 238.9352 15.25353728 12898,6867.86,94.404,490.833,488.61800000000005,0.0
51738.0,STARLINK-3515,PAYLOAD,2022-05-07 06:00:02,15.24844499,0.0001876,53.2174,135.5291,35.0876,280.8719,-0.030805,-0.00723021,0.0,0 STARLINK-3515,1 51738U 22016AA  22127.25002315 -.00723021  00000-0 -30805-1 0  9991,2 51738  53.2174 135.5291 0001876  35.0876 280.8719 15.24844499 12946,6869.389,94.436,492.543,489.966,0.0
51738.0,STARLINK-3515,PAYLOAD,2022-05-07 14:00:01,15.24336977,0.0001558,53.2172,133.995,42.9771,303.4346,-0.03147,-0.00727109,0.0,0 STARLINK-3515,1 51738U 22016AA  22127.58334491 -.00727109  00000-0 -31470-1 0  9990,2 51738  53.2172 133.9950 0001558  42.9771 303.4346 15.24336977 12996,6870.9140000000025,94.467,493.85,491.709,0.0
51738.0,STARLINK-3515,PAYLOAD,2022-05-07 22:00:00,15.23822942,0.0001594,53.2173,132.4604,40.0953,336.2229,-0.031661,-0.00720787,0.0,0 STARLINK-3515,1 51738U 22016AA  22127.91667824 -.00720787  00000-0 -31661-1 0  9993,2 51738  53.2173 132.4604 0001594  40.0953 336.2229 15.23822942 13040,6872.459,94.499,495.42,493.229,0.0
51738.0,STARLINK-3515,PAYLOAD,2022-05-08 06:00:00,15.23315877,0.000202,53.2175,130.9303,29.8219,15.7852,-0.032356,-0.00725264,0.0,0 STARLINK-3515,1 51738U 22016AA  22128.25001157 -.00725264  00000-0 -32356-1 0  9999,2 51738  53.2175 130.9303 0002020  29.8219  15.7852 15.23315877 13096,6873.984,94.531,497.23800000000006,494.461,0.0
51738.0,STARLINK-3515,PAYLOAD,2022-05-08 14:00:01,15.22805185,0.000166,53.2172,129.3994,40.4379,33.8478,-0.032774,-0.00723609,0.0,0 STARLINK-3515,1 51738U 22016AA  22128.58334491 -.00723609  00000-0 -32774-1 0  9990,2 51738  53.2172 129.3994 0001660  40.4379  33.8478 15.22805185 13142,6875.521,94.562,498.527,496.245,0.0
51738.0,STARLINK-3515,PAYLOAD,2022-05-08 20:00:01,15.22420555,0.0001712,53.2174,128.2509,36.1243,329.2697,-0.032992,-0.00720378,0.0,0 STARLINK-3515,1 51738U 22016AA  22128.83334491 -.00720378  00000-0 -32992-1 0  9990,2 51738  53.2174 128.2509 0001712  36.1243 329.2697 15.22420555 13187,6876.679,94.586,499.721,497.367,0.0
51738.0,STARLINK-3515,PAYLOAD,2022-05-08 22:00:00,15.22294674,0.000185,53.2174,127.8685,35.2786,67.0739,-0.0332709999999999,-0.00723552,0.0,0 STARLINK-3515,1 51738U 22016AA  22128.91667824 -.00723552  00000-0 -33271-1 0  9996,2 51738  53.2174 127.8685 0001850  35.2786  67.0739 15.22294674  3669,6877.058000000001,94.594,500.195,497.651,0.0
51738.0,STARLINK-3515,PAYLOAD,2022-05-09 06:00:00,15.21785125,0.0002107,53.2174,126.342,32.7499,97.0541,-0.033802,-0.00724082,0.0,0 STARLINK-3515,1 51738U 22016AA  22129.25001157 -.00724082  00000-0 -33802-1 0  9994,2 51738  53.2174 126.3420 0002107  32.7499  97.0541 15.21785125 13254,6878.593000000003,94.626,501.907,499.009,0.0
51738.0,STARLINK-3515,PAYLOAD,2022-05-09 14:00:01,15.21274741,0.0001911,53.2172,124.8145,38.4588,118.2489,-0.034251,-0.0072279,0.0,0 STARLINK-3515,1 51738U 22016AA  22129.58335648 -.00722790  00000-0 -34251-1 0  9998,2 51738  53.2172 124.8145 0001911  38.4588 118.2489 15.21274741 13303,6880.130999999999,94.657,503.311,500.682,0.0
51738.0,STARLINK-3515,PAYLOAD,2022-05-09 22:00:00,15.20766023,0.0001781,53.2174,123.2874,44.8401,138.0316,-0.034908,-0.0072548999999999,0.0,0 STARLINK-3515,1 51738U 22016AA  22129.91667824 -.00725490  00000-0 -34908-1 0  9998,2 51738  53.2174 123.2874 0001781  44.8401 138.0316 15.20766023  3651,6881.666,94.689,504.756,502.305,0.0
51738.0,STARLINK-3515,PAYLOAD,2022-05-10 00:00:00,15.20637712,0.0001672,53.2176,122.9062,47.6517,231.6809,-0.034891,-0.007226,0.0,0 STARLINK-3515,1 51738U 22016AA  22130.00001157 -.00722600  00000-0 -34891-1 0  9992,2 51738  53.2176 122.9062 0001672  47.6517 231.6809 15.20637712 13364,6882.053000000001,94.697,505.069,502.767,0.0
51738.0,STARLINK-3515,PAYLOAD,2022-05-10 08:00:01,15.20127774,0.0001911,53.2176,121.3837,36.4924,268.3005,-0.035465,-0.00723543,0.0,0 STARLINK-3515,1 51738U 22016AA  22130.33334491 -.00723543  00000-0 -35465-1 0  9993,2 51738  53.2176 121.3837 0001911  36.4924 268.3005 15.20127774 13414,6883.592,94.729,506.772,504.141,0.0
51738.0,STARLINK-3515,PAYLOAD,2022-05-10 14:00:01,15.19745909,0.0001797,53.2172,120.2404,43.722,189.7651,-0.035937,-0.00724912,0.0,0 STARLINK-3515,1 51738U 22016AA  22130.58334491 -.00724912  00000-0 -35937-1 0  9995,2 51738  53.2172 120.2404 0001797  43.7220 189.7651 15.19745909 13451,6884.745,94.753,507.847,505.37300000000016,0.0
51738.0,STARLINK-3515,PAYLOAD,2022-05-10 18:00:00,15.19489646,0.0001661,53.2175,119.4783,40.5587,25.2004,-0.036097,-0.00722841,0.0,0 STARLINK-3515,1 51738U 22016AA  22130.75001157 -.00722841  00000-0 -36097-1 0  9991,2 51738  53.2175 119.4783 0001661  40.5587  25.2004 15.19489646 13476,6885.519,94.769,508.528,506.24,0.0
51738.0,STARLINK-3515,PAYLOAD,2022-05-11 22:00:00,15.17703638,0.0001602,53.2176,114.1572,45.4891,281.8779,-0.037889,-0.00720533,0.0,0 STARLINK-3515,1 51738U 22016AA  22131.91667824 -.00720533  00000-0 -37889-1 0  9995,2 51738  53.2176 114.1572 0001602  45.4891 281.8779 15.17703638 13659,6890.92,94.88,513.889,511.681,0.0
51738.0,STARLINK-3515,PAYLOAD,2022-05-12 06:00:00,15.171960999999998,0.000189,53.2175,112.6415,35.8502,313.4525,-0.038702,-0.00725006,0.0,0 STARLINK-3515,1 51738U 22016AA  22132.25001157 -.00725006  00000-0 -38702-1 0  9999,2 51738  53.2175 112.6415 0001890  35.8502 313.4525 15.17196100 13705,6892.456,94.912,515.624,513.019,0.0
51738.0,STARLINK-3515,PAYLOAD,2022-05-12 14:00:01,15.16686223,0.0001844,53.2174,111.1243,33.788000000000004,336.8402,-0.039298,-0.00725415,0.0,0 STARLINK-3515,1 51738U 22016AA  22132.58334491 -.00725415  00000-0 -39298-1 0  9990,2 51738  53.2174 111.1243 0001844  33.7880 336.8402 15.16686223  1307,6894.001,94.944,517.137,514.595,0.0
51738.0,STARLINK-3515,PAYLOAD,2022-05-12 20:00:01,15.16301008,0.000161,53.2173,109.9868,46.7988,249.4225,-0.039458,-0.00720675,0.0,0 STARLINK-3515,1 51738U 22016AA  22132.83334491 -.00720675  00000-0 -39458-1 0  9999,2 51738  53.2173 109.9868 0001610  46.7988 249.4225 15.16301008 13791,6895.169,94.968,518.144,515.924,0.0
51738.0,STARLINK-3515,PAYLOAD,2022-05-12 22:00:00,15.16173493,0.0001624,53.2175,109.6083,42.9487,348.3928,-0.039556,-0.00719887,0.0,0 STARLINK-3515,1 51738U 22016AA  22132.91667824 -.00719887  00000-0 -39556-1 0  9999,2 51738  53.2175 109.6083 0001624  42.9487 348.3928 15.16173493  1304,6895.555,94.976,518.54,516.3,0.0
51738.0,STARLINK-3515,PAYLOAD,2022-05-13 06:00:00,15.15667086,0.0001959,53.2175,108.0962,33.8938,17.5447,-0.040531,-0.00726577,0.0,0 STARLINK-3515,1 51738U 22016AA  22133.25001157 -.00726577  00000-0 -40531-1 0  9997,2 51738  53.2175 108.0962 0001959  33.8938  17.5447 15.15667086 13853,6897.090999999999,95.008,520.307,517.605,0.0
51738.0,STARLINK-3515,PAYLOAD,2022-05-13 14:00:01,15.15155448,0.0001583,53.2174,106.5824,45.368,25.5582,-0.040953,-0.00723671,0.0,0 STARLINK-3515,1 51738U 22016AA  22133.58334491 -.00723671  00000-0 -40953-1 0  9993,2 51738  53.2174 106.5824 0001583  45.3680  25.5582 15.15155448 13906,6898.644,95.04,521.601,519.4169999999998,0.0
51738.0,STARLINK-3515,PAYLOAD,2022-05-13 22:00:00,15.1464431,0.0001591,53.2175,105.0699,48.7411,41.0596,-0.041382,-0.00720898,0.0,0 STARLINK-3515,1 51738U 22016AA  22133.91667824 -.00720898  00000-0 -41382-1 0  9994,2 51738  53.2175 105.0699 0001591  48.7411  41.0596 15.14644310 13952,6900.196,95.072,523.158,520.9630000000002,0.0
51738.0,STARLINK-3515,PAYLOAD,2022-05-14 06:00:00,15.14136651,0.0001912,53.2175,103.5614,38.4862,69.5737,-0.042279,-0.00725684,0.0,0 STARLINK-3515,1 51738U 22016AA  22134.25001157 -.00725684  00000-0 -42279-1 0  9997,2 51738  53.2175 103.5614 0001912  38.4862  69.5737 15.14136651 14019,6901.738,95.104,524.922,522.283,0.0
51738.0,STARLINK-3515,PAYLOAD,2022-05-14 14:00:01,15.13625222,0.0001740999999999,53.2173,102.0511,43.3158,82.3933,-0.042719,-0.00722888,0.0,0 STARLINK-3515,1 51738U 22016AA  22134.58334491 -.00722888  00000-0 -42719-1 0  9995,2 51738  53.2173 102.0511 0001741  43.3158  82.3933 15.13625222 14062,6903.292,95.136,526.359,523.956,0.0
51738.0,STARLINK-3515,PAYLOAD,2022-05-14 22:00:00,15.13115001,0.000194,53.2175,100.5423,39.0902,103.6546,-0.043268,-0.00721818,0.0,0 STARLINK-3515,1 51738U 22016AA  22134.91667824 -.00721818  00000-0 -43268-1 0  9993,2 51738  53.2175 100.5423 0001940  39.0902 103.6546 15.13115001 14111,6904.844,95.168,528.049,525.37,0.0
